<?xml version="1.0" encoding="UTF-8"?>
<ndm xmlns:xsi="http://www.w3.org/2001/XMLSchema-instance" xsi:noNamespaceSchemaLocation="https://sanaregistry.org/r/ndmxml_unqualified/ndmxml-2.0.0-master-2.0.xsd">
<omm id="CCSDS_OMM_VERS" version="2.0">
<header><CREATION_DATE/><ORIGINATOR/></header><body><segment><metadata><OBJECT_NAME>ORBCOMM FM37</OBJECT_NAME><OBJECT_ID>2008-031E</OBJECT_ID><CENTER_NAME>EARTH</CENTER_NAME><REF_FRAME>TEME</REF_FRAME><TIME_SYSTEM>UTC</TIME_SYSTEM><MEAN_ELEMENT_THEORY>SGP4</MEAN_ELEMENT_THEORY></metadata><data><meanElements><EPOCH>2025-01-29T10:26:05.698752</EPOCH><MEAN_MOTION>14.78829733</MEAN_MOTION><ECCENTRICITY>.0005856</ECCENTRICITY><INCLINATION>48.4394</INCLINATION><RA_OF_ASC_NODE>282.8666</RA_OF_ASC_NODE><ARG_OF_PERICENTER>140.3019</ARG_OF_PERICENTER><MEAN_ANOMALY>29.6618</MEAN_ANOMALY></meanElements><tleParameters><EPHEMERIS_TYPE>0</EPHEMERIS_TYPE><CLASSIFICATION_TYPE>U</CLASSIFICATION_TYPE><NORAD_CAT_ID>33064</NORAD_CAT_ID><ELEMENT_SET_NO>999</ELEMENT_SET_NO><REV_AT_EPOCH>89350</REV_AT_EPOCH><BSTAR>.55271E-3</BSTAR><MEAN_MOTION_DOT>.3903E-4</MEAN_MOTION_DOT><MEAN_MOTION_DDOT>0</MEAN_MOTION_DDOT></tleParameters></data></segment></body></omm>
<omm id="CCSDS_OMM_VERS" version="2.0">
<header><CREATION_DATE/><ORIGINATOR/></header><body><segment><metadata><OBJECT_NAME>ORBCOMM FM40</OBJECT_NAME><OBJECT_ID>2008-031F</OBJECT_ID><CENTER_NAME>EARTH</CENTER_NAME><REF_FRAME>TEME</REF_FRAME><TIME_SYSTEM>UTC</TIME_SYSTEM><MEAN_ELEMENT_THEORY>SGP4</MEAN_ELEMENT_THEORY></metadata><data><meanElements><EPOCH>2025-01-29T09:54:03.005856</EPOCH><MEAN_MOTION>14.80810187</MEAN_MOTION><ECCENTRICITY>.000735</ECCENTRICITY><INCLINATION>48.4406</INCLINATION><RA_OF_ASC_NODE>269.2081</RA_OF_ASC_NODE><ARG_OF_PERICENTER>151.0879</ARG_OF_PERICENTER><MEAN_ANOMALY>18.9606</MEAN_ANOMALY></meanElements><tleParameters><EPHEMERIS_TYPE>0</EPHEMERIS_TYPE><CLASSIFICATION_TYPE>U</CLASSIFICATION_TYPE><NORAD_CAT_ID>33065</NORAD_CAT_ID><ELEMENT_SET_NO>999</ELEMENT_SET_NO><REV_AT_EPOCH>89358</REV_AT_EPOCH><BSTAR>.57869E-3</BSTAR><MEAN_MOTION_DOT>.4301E-4</MEAN_MOTION_DOT><MEAN_MOTION_DDOT>0</MEAN_MOTION_DDOT></tleParameters></data></segment></body></omm>
<omm id="CCSDS_OMM_VERS" version="2.0">
<header><CREATION_DATE/><ORIGINATOR/></header><body><segment><metadata><OBJECT_NAME>VESSELSAT 1</OBJECT_NAME><OBJECT_ID>2011-058C</OBJECT_ID><CENTER_NAME>EARTH</CENTER_NAME><REF_FRAME>TEME</REF_FRAME><TIME_SYSTEM>UTC</TIME_SYSTEM><MEAN_ELEMENT_THEORY>SGP4</MEAN_ELEMENT_THEORY></metadata><data><meanElements><EPOCH>2025-01-29T14:15:46.229184</EPOCH><MEAN_MOTION>14.11301234</MEAN_MOTION><ECCENTRICITY>.0013722</ECCENTRICITY><INCLINATION>19.9598</INCLINATION><RA_OF_ASC_NODE>212.4883</RA_OF_ASC_NODE><ARG_OF_PERICENTER>102.1345</ARG_OF_PERICENTER><MEAN_ANOMALY>258.0597</MEAN_ANOMALY></meanElements><tleParameters><EPHEMERIS_TYPE>0</EPHEMERIS_TYPE><CLASSIFICATION_TYPE>U</CLASSIFICATION_TYPE><NORAD_CAT_ID>37840</NORAD_CAT_ID><ELEMENT_SET_NO>999</ELEMENT_SET_NO><REV_AT_EPOCH>68670</REV_AT_EPOCH><BSTAR>.1235E-3</BSTAR><MEAN_MOTION_DOT>.491E-5</MEAN_MOTION_DOT><MEAN_MOTION_DDOT>0</MEAN_MOTION_DDOT></tleParameters></data></segment></body></omm>
<omm id="CCSDS_OMM_VERS" version="2.0">
<header><CREATION_DATE/><ORIGINATOR/></header><body><segment><metadata><OBJECT_NAME>ORBCOMM FM109</OBJECT_NAME><OBJECT_ID>2014-040A</OBJECT_ID><CENTER_NAME>EARTH</CENTER_NAME><REF_FRAME>TEME</REF_FRAME><TIME_SYSTEM>UTC</TIME_SYSTEM><MEAN_ELEMENT_THEORY>SGP4</MEAN_ELEMENT_THEORY></metadata><data><meanElements><EPOCH>2025-01-29T11:39:35.212608</EPOCH><MEAN_MOTION>14.57744556</MEAN_MOTION><ECCENTRICITY>.0001459</ECCENTRICITY><INCLINATION>47.0039</INCLINATION><RA_OF_ASC_NODE>311.1741</RA_OF_ASC_NODE><ARG_OF_PERICENTER>45.0382</ARG_OF_PERICENTER><MEAN_ANOMALY>315.0621</MEAN_ANOMALY></meanElements><tleParameters><EPHEMERIS_TYPE>0</EPHEMERIS_TYPE><CLASSIFICATION_TYPE>U</CLASSIFICATION_TYPE><NORAD_CAT_ID>40086</NORAD_CAT_ID><ELEMENT_SET_NO>999</ELEMENT_SET_NO><REV_AT_EPOCH>56082</REV_AT_EPOCH><BSTAR>.48E-3</BSTAR><MEAN_MOTION_DOT>.2046E-4</MEAN_MOTION_DOT><MEAN_MOTION_DDOT>0</MEAN_MOTION_DDOT></tleParameters></data></segment></body></omm>
<omm id="CCSDS_OMM_VERS" version="2.0">
<header><CREATION_DATE/><ORIGINATOR/></header><body><segment><metadata><OBJECT_NAME>ORBCOMM FM107</OBJECT_NAME><OBJECT_ID>2014-040B</OBJECT_ID><CENTER_NAME>EARTH</CENTER_NAME><REF_FRAME>TEME</REF_FRAME><TIME_SYSTEM>UTC</TIME_SYSTEM><MEAN_ELEMENT_THEORY>SGP4</MEAN_ELEMENT_THEORY></metadata><data><meanElements><EPOCH>2025-01-29T04:15:58.896000</EPOCH><MEAN_MOTION>14.57806545</MEAN_MOTION><ECCENTRICITY>.0001509</ECCENTRICITY><INCLINATION>47.0057</INCLINATION><RA_OF_ASC_NODE>313.6385</RA_OF_ASC_NODE><ARG_OF_PERICENTER>349.3013</ARG_OF_PERICENTER><MEAN_ANOMALY>10.7840</MEAN_ANOMALY></meanElements><tleParameters><EPHEMERIS_TYPE>0</EPHEMERIS_TYPE><CLASSIFICATION_TYPE>U</CLASSIFICATION_TYPE><NORAD_CAT_ID>40087</NORAD_CAT_ID><ELEMENT_SET_NO>999</ELEMENT_SET_NO><REV_AT_EPOCH>56085</REV_AT_EPOCH><BSTAR>.43497E-3</BSTAR><MEAN_MOTION_DOT>.184E-4</MEAN_MOTION_DOT><MEAN_MOTION_DDOT>0</MEAN_MOTION_DDOT></tleParameters></data></segment></body></omm>
<omm id="CCSDS_OMM_VERS" version="2.0">
<header><CREATION_DATE/><ORIGINATOR/></header><body><segment><metadata><OBJECT_NAME>ORBCOMM FM106</OBJECT_NAME><OBJECT_ID>2014-040C</OBJECT_ID><CENTER_NAME>EARTH</CENTER_NAME><REF_FRAME>TEME</REF_FRAME><TIME_SYSTEM>UTC</TIME_SYSTEM><MEAN_ELEMENT_THEORY>SGP4</MEAN_ELEMENT_THEORY></metadata><data><meanElements><EPOCH>2025-01-29T13:39:16.871328</EPOCH><MEAN_MOTION>14.68797019</MEAN_MOTION><ECCENTRICITY>.0016785</ECCENTRICITY><INCLINATION>47.0588</INCLINATION><RA_OF_ASC_NODE>144.9046</RA_OF_ASC_NODE><ARG_OF_PERICENTER>147.1806</ARG_OF_PERICENTER><MEAN_ANOMALY>213.0130</MEAN_ANOMALY></meanElements><tleParameters><EPHEMERIS_TYPE>0</EPHEMERIS_TYPE><CLASSIFICATION_TYPE>U</CLASSIFICATION_TYPE><NORAD_CAT_ID>40088</NORAD_CAT_ID><ELEMENT_SET_NO>999</ELEMENT_SET_NO><REV_AT_EPOCH>56309</REV_AT_EPOCH><BSTAR>.52468E-3</BSTAR><MEAN_MOTION_DOT>.2913E-4</MEAN_MOTION_DOT><MEAN_MOTION_DDOT>0</MEAN_MOTION_DDOT></tleParameters></data></segment></body></omm>
<omm id="CCSDS_OMM_VERS" version="2.0">
<header><CREATION_DATE/><ORIGINATOR/></header><body><segment><metadata><OBJECT_NAME>ORBCOMM FM111</OBJECT_NAME><OBJECT_ID>2014-040D</OBJECT_ID><CENTER_NAME>EARTH</CENTER_NAME><REF_FRAME>TEME</REF_FRAME><TIME_SYSTEM>UTC</TIME_SYSTEM><MEAN_ELEMENT_THEORY>SGP4</MEAN_ELEMENT_THEORY></metadata><data><meanElements><EPOCH>2025-01-29T08:31:20.153568</EPOCH><MEAN_MOTION>14.84953926</MEAN_MOTION><ECCENTRICITY>.0030987</ECCENTRICITY><INCLINATION>47.0030</INCLINATION><RA_OF_ASC_NODE>14.5117</RA_OF_ASC_NODE><ARG_OF_PERICENTER>250.0756</ARG_OF_PERICENTER><MEAN_ANOMALY>109.6801</MEAN_ANOMALY></meanElements><tleParameters><EPHEMERIS_TYPE>0</EPHEMERIS_TYPE><CLASSIFICATION_TYPE>U</CLASSIFICATION_TYPE><NORAD_CAT_ID>40089</NORAD_CAT_ID><ELEMENT_SET_NO>999</ELEMENT_SET_NO><REV_AT_EPOCH>56958</REV_AT_EPOCH><BSTAR>.80159E-3</BSTAR><MEAN_MOTION_DOT>.6758E-4</MEAN_MOTION_DOT><MEAN_MOTION_DDOT>0</MEAN_MOTION_DDOT></tleParameters></data></segment></body></omm>
<omm id="CCSDS_OMM_VERS" version="2.0">
<header><CREATION_DATE/><ORIGINATOR/></header><body><segment><metadata><OBJECT_NAME>ORBCOMM FM104</OBJECT_NAME><OBJECT_ID>2014-040E</OBJECT_ID><CENTER_NAME>EARTH</CENTER_NAME><REF_FRAME>TEME</REF_FRAME><TIME_SYSTEM>UTC</TIME_SYSTEM><MEAN_ELEMENT_THEORY>SGP4</MEAN_ELEMENT_THEORY></metadata><data><meanElements><EPOCH>2025-01-29T13:32:55.019616</EPOCH><MEAN_MOTION>14.56258629</MEAN_MOTION><ECCENTRICITY>.0017259</ECCENTRICITY><INCLINATION>47.0060</INCLINATION><RA_OF_ASC_NODE>343.7763</RA_OF_ASC_NODE><ARG_OF_PERICENTER>292.0947</ARG_OF_PERICENTER><MEAN_ANOMALY>67.8106</MEAN_ANOMALY></meanElements><tleParameters><EPHEMERIS_TYPE>0</EPHEMERIS_TYPE><CLASSIFICATION_TYPE>U</CLASSIFICATION_TYPE><NORAD_CAT_ID>40090</NORAD_CAT_ID><ELEMENT_SET_NO>999</ELEMENT_SET_NO><REV_AT_EPOCH>56041</REV_AT_EPOCH><BSTAR>.41252E-3</BSTAR><MEAN_MOTION_DOT>.1677E-4</MEAN_MOTION_DOT><MEAN_MOTION_DDOT>0</MEAN_MOTION_DDOT></tleParameters></data></segment></body></omm>

</ndm>
