ORBCOMM FM37            
1 33064U 08031E   25029.43478818  .00003903  00000+0  55271-3 0  9996
2 33064  48.4394 282.8666 0005856 140.3019  29.6618 14.78829733893509
ORBCOMM FM40            
1 33065U 08031F   25029.41253479  .00004301  00000+0  57869-3 0  9997
2 33065  48.4406 269.2081 0007350 151.0879  18.9606 14.80810187893580
VESSELSAT 1             
1 37840U 11058C   25029.59428506  .00000491  00000+0  12350-3 0  9991
2 37840  19.9598 212.4883 0013722 102.1345 258.0597 14.11301234686707
ORBCOMM FM109           
1 40086U 14040A   25029.48582422  .00002046  00000+0  48000-3 0  9996
2 40086  47.0039 311.1741 0001459  45.0382 315.0621 14.57744556560829
ORBCOMM FM107           
1 40087U 14040B   25029.17776500  .00001840  00000+0  43497-3 0  9991
2 40087  47.0057 313.6385 0001509 349.3013  10.7840 14.57806545560850
ORBCOMM FM106           
1 40088U 14040C   25029.56894527  .00002913  00000+0  52468-3 0  9995
2 40088  47.0588 144.9046 0016785 147.1806 213.0130 14.68797019563091
ORBCOMM FM111           
1 40089U 14040D   25029.35509437  .00006758  00000+0  80159-3 0  9995
2 40089  47.0030  14.5117 0030987 250.0756 109.6801 14.84953926569587
ORBCOMM FM104           
1 40090U 14040E   25029.56452569  .00001677  00000+0  41252-3 0  9999
2 40090  47.0060 343.7763 0017259 292.0947  67.8106 14.56258629560414
